ONEWEB-0289             
1 49079U 21075E   23226.45224283  .00000085  00000+0  18611-3 0  9991
2 49079  87.9175 212.0486 0001938  88.0310 272.1043 13.17649409 98518
ONEWEB-0290             
1 49080U 21075F   23226.96666586 -.00000119  00000+0 -34104-3 0  9990
2 49080  87.9178 211.9693 0002376  89.3362 270.8041 13.17460500 98009
ONEWEB-0291             
1 49081U 21075G   23227.02600258  .00000080  00000+0  17350-3 0  9992
2 49081  87.9176 211.9433 0002270  81.6357 278.5032 13.17697851 98019
ONEWEB-0293             
1 49082U 21075H   23226.44365676  .00000075  00000+0  16152-3 0  9993
2 49082  87.9175 212.0475 0002290  85.0715 275.0677 13.17552232 97957
ONEWEB-0294             
1 49083U 21075J   23226.43433801  .00000041  00000+0  77917-4 0  9999
2 49083  87.9020 196.9323 0002328  90.3934 269.7461 13.12443286 99443
ONEWEB-0295             
1 49084U 21075K   23226.44579847  .00000071  00000+0  15081-3 0  9998
2 49084  87.9182 212.0156 0002403  75.3734 284.7664 13.17579102 97893
ONEWEB-0296             
1 49085U 21075L   23226.41841603 -.00000836  00000+0 -23605-2 0  9999
2 49085  87.9032 196.9337 0002874  71.8378 288.3063 13.12440417 99443
ONEWEB-0297             
1 49086U 21075M   23226.44807483 -.00000184  00000+0 -54599-3 0  9994
2 49086  87.9024 196.9110 0001701  79.6308 280.5012 13.12440885100058
